[{"OBJECT_NAME":"STARLINK-5880","OBJECT_ID":"2023-094C","EPOCH":"2026-03-09T06:15:36.503424","MEAN_MOTION":15.02534794,"ECCENTRICITY":0.00012624,"INCLINATION":43.0042,"RA_OF_ASC_NODE":32.8163,"ARG_OF_PERICENTER":275.0069,"MEAN_ANOMALY":85.0629,"EPHEMERIS_TYPE":0,"CLASSIFICATION_TYPE":"U","NORAD_CAT_ID":57220,"ELEMENT_SET_NO":999,"REV_AT_EPOCH":14705,"BSTAR":2.3972433e-5,"MEAN_MOTION_DOT":1.2e-6,"MEAN_MOTION_DDOT":0},{"OBJECT_NAME":"COSMOS 2251 DEB","OBJECT_ID":"1993-036AXJ","EPOCH":"2026-03-07T16:14:39.475392","MEAN_MOTION":15.02350149,"ECCENTRICITY":0.00052276,"INCLINATION":74.0329,"RA_OF_ASC_NODE":161.7612,"ARG_OF_PERICENTER":248.7206,"MEAN_ANOMALY":111.3424,"EPHEMERIS_TYPE":0,"CLASSIFICATION_TYPE":"U","NORAD_CAT_ID":36047,"ELEMENT_SET_NO":999,"REV_AT_EPOCH":67212,"BSTAR":0.0041103158,"MEAN_MOTION_DOT":0.00054783,"MEAN_MOTION_DDOT":0}]
